{
  "type": "FeatureCollection",
  "features": [
    {
      "type": "Feature",
      "properties": {
        "norad_id": 35902,
        "name": "COSMOS 2251 DEB",
        "group": "cosmos-2251-debris",
        "lat": 63.18988052231818,
        "lon": 16.547450317912517,
        "alt_km": 838.3514259862695,
        "timestamp": "2025-12-14T14:39:29.765957+00:00",
        "meta_object_name": "COSMOS 2251 DEB",
        "meta_object_id": "1993-036AUR",
        "meta_epoch": "2025-12-12T01:33:56.017152",
        "meta_mean_motion": 14.26898947,
        "meta_eccentricity": 0.01020569,
        "meta_inclination": 73.9828,
        "meta_ra_of_asc_node": 235.8058,
        "meta_arg_of_pericenter": 350.6999,
        "meta_mean_anomaly": 9.2255,
        "meta_ephemeris_type": 0,
        "meta_classification_type": "U",
        "meta_norad_cat_id": 35902,
        "meta_element_set_no": 999,
        "meta_rev_at_epoch": 61120,
        "meta_bstar": 0.0016300387,
        "meta_mean_motion_dot": 4.159e-05,
        "meta_mean_motion_ddot": 0,
        "tle_line1": "1 35902U 93036AUR 25346.06523168  .00004159  00000+0  16300-2 0  9991",
        "tle_line2": "2 35902  73.9828 235.8058 0102056 350.6999   9.2255 14.26898947611205"
      },
      "geometry": {
        "type": "Point",
        "coordinates": [
          16.547450317912517,
          63.18988052231818
        ]
      }
    },
    {
      "type": "Feature",
      "properties": {
        "norad_id": 35905,
        "name": "COSMOS 2251 DEB",
        "group": "cosmos-2251-debris",
        "lat": -7.755904757717753,
        "lon": 29.250472237631165,
        "alt_km": 582.2997256088047,
        "timestamp": "2025-12-14T14:39:29.765967+00:00",
        "meta_object_name": "COSMOS 2251 DEB",
        "meta_object_id": "1993-036AUU",
        "meta_epoch": "2025-12-12T21:46:16.127040",
        "meta_mean_motion": 14.99027682,
        "meta_eccentricity": 0.00908923,
        "meta_inclination": 74.032,
        "meta_ra_of_asc_node": 210.4725,
        "meta_arg_of_pericenter": 290.4597,
        "meta_mean_anomaly": 68.6848,
        "meta_ephemeris_type": 0,
        "meta_classification_type": "U",
        "meta_norad_cat_id": 35905,
        "meta_element_set_no": 999,
        "meta_rev_at_epoch": 88585,
        "meta_bstar": 0.00081105566,
        "meta_mean_motion_dot": 0.00010695,
        "meta_mean_motion_ddot": 0,
        "tle_line1": "1 35905U 93036AUU 25346.90713110  .00010695  00000+0  81106-3 0  9994",
        "tle_line2": "2 35905  74.0320 210.4725 0090892 290.4597  68.6848 14.99027682885857"
      },
      "geometry": {
        "type": "Point",
        "coordinates": [
          29.250472237631165,
          -7.755904757717753
        ]
      }
    },
    {
      "type": "Feature",
      "properties": {
        "norad_id": 35959,
        "name": "COSMOS 2251 DEB",
        "group": "cosmos-2251-debris",
        "lat": -59.795369238094864,
        "lon": 158.10147619148276,
        "alt_km": 797.295937316705,
        "timestamp": "2025-12-14T14:39:29.765977+00:00",
        "meta_object_name": "COSMOS 2251 DEB",
        "meta_object_id": "1993-036AUZ",
        "meta_epoch": "2025-12-13T07:23:22.047648",
        "meta_mean_motion": 14.34136813,
        "meta_eccentricity": 0.00215686,
        "meta_inclination": 74.0325,
        "meta_ra_of_asc_node": 311.0234,
        "meta_arg_of_pericenter": 31.3363,
        "meta_mean_anomaly": 328.9069,
        "meta_ephemeris_type": 0,
        "meta_classification_type": "U",
        "meta_norad_cat_id": 35959,
        "meta_element_set_no": 999,
        "meta_rev_at_epoch": 84936,
        "meta_bstar": 0.00020716976,
        "meta_mean_motion_dot": 5.55e-06,
        "meta_mean_motion_ddot": 0,
        "tle_line1": "1 35959U 93036AUZ 25347.30789407  .00000555  00000+0  20717-3 0  9995",
        "tle_line2": "2 35959  74.0325 311.0234 0021568  31.3363 328.9069 14.34136813849360"
      },
      "geometry": {
        "type": "Point",
        "coordinates": [
          158.10147619148276,
          -59.795369238094864
        ]
      }
    },
    {
      "type": "Feature",
      "properties": {
        "norad_id": 35961,
        "name": "COSMOS 2251 DEB",
        "group": "cosmos-2251-debris",
        "lat": -18.285036650813257,
        "lon": -164.57857018676344,
        "alt_km": 1003.1541550987313,
        "timestamp": "2025-12-14T14:39:29.765987+00:00",
        "meta_object_name": "COSMOS 2251 DEB",
        "meta_object_id": "1993-036AVB",
        "meta_epoch": "2025-12-13T08:00:02.001600",
        "meta_mean_motion": 14.05391131,
        "meta_eccentricity": 0.01919644,
        "meta_inclination": 73.9252,
        "meta_ra_of_asc_node": 203.1346,
        "meta_arg_of_pericenter": 136.4306,
        "meta_mean_anomaly": 225.2177,
        "meta_ephemeris_type": 0,
        "meta_classification_type": "U",
        "meta_norad_cat_id": 35961,
        "meta_element_set_no": 999,
        "meta_rev_at_epoch": 62690,
        "meta_bstar": 0.0012957736,
        "meta_mean_motion_dot": 2.456e-05,
        "meta_mean_motion_ddot": 0,
        "tle_line1": "1 35961U 93036AVB 25347.33335650  .00002456  00000+0  12958-2 0  9997",
        "tle_line2": "2 35961  73.9252 203.1346 0191964 136.4306 225.2177 14.05391131626903"
      },
      "geometry": {
        "type": "Point",
        "coordinates": [
          -164.57857018676344,
          -18.285036650813257
        ]
      }
    },
    {
      "type": "Feature",
      "properties": {
        "norad_id": 35979,
        "name": "COSMOS 2251 DEB",
        "group": "cosmos-2251-debris",
        "lat": -22.71623512489914,
        "lon": -132.1699879184046,
        "alt_km": 615.3458784096556,
        "timestamp": "2025-12-14T14:39:29.765997+00:00",
        "meta_object_name": "COSMOS 2251 DEB",
        "meta_object_id": "1993-036AVV",
        "meta_epoch": "2025-12-12T23:45:06.669792",
        "meta_mean_motion": 14.74652089,
        "meta_eccentricity": 0.00589078,
        "meta_inclination": 74.0101,
        "meta_ra_of_asc_node": 237.8948,
        "meta_arg_of_pericenter": 10.0091,
        "meta_mean_anomaly": 4.2264,
        "meta_ephemeris_type": 0,
        "meta_classification_type": "U",
        "meta_norad_cat_id": 35979,
        "meta_element_set_no": 999,
        "meta_rev_at_epoch": 88637,
        "meta_bstar": 0.0014067844,
        "meta_mean_motion_dot": 9.634e-05,
        "meta_mean_motion_ddot": 0,
        "tle_line1": "1 35979U 93036AVV 25346.98966053  .00009634  00000+0  14068-2 0  9992",
        "tle_line2": "2 35979  74.0101 237.8948 0058907  10.0091   4.2264 14.74652089886375"
      },
      "geometry": {
        "type": "Point",
        "coordinates": [
          -132.1699879184046,
          -22.71623512489914
        ]
      }
    },
    {
      "type": "Feature",
      "properties": {
        "norad_id": 35980,
        "name": "COSMOS 2251 DEB",
        "group": "cosmos-2251-debris",
        "lat": 63.2357690379511,
        "lon": -95.82008494984119,
        "alt_km": 718.3716204664524,
        "timestamp": "2025-12-14T14:39:29.766007+00:00",
        "meta_object_name": "COSMOS 2251 DEB",
        "meta_object_id": "1993-036AVW",
        "meta_epoch": "2025-12-12T16:04:36.825888",
        "meta_mean_motion": 14.59307248,
        "meta_eccentricity": 0.00536829,
        "meta_inclination": 73.9106,
        "meta_ra_of_asc_node": 122.815,
        "meta_arg_of_pericenter": 257.3132,
        "meta_mean_anomaly": 102.2028,
        "meta_ephemeris_type": 0,
        "meta_classification_type": "U",
        "meta_norad_cat_id": 35980,
        "meta_element_set_no": 999,
        "meta_rev_at_epoch": 61485,
        "meta_bstar": 0.0026199554,
        "meta_mean_motion_dot": 0.00012627,
        "meta_mean_motion_ddot": 0,
        "tle_line1": "1 35980U 93036AVW 25346.66987067  .00012627  00000+0  26200-2 0  9994",
        "tle_line2": "2 35980  73.9106 122.8150 0053682 257.3132 102.2028 14.59307248614851"
      },
      "geometry": {
        "type": "Point",
        "coordinates": [
          -95.82008494984119,
          63.2357690379511
        ]
      }
    },
    {
      "type": "Feature",
      "properties": {
        "norad_id": 35982,
        "name": "COSMOS 2251 DEB",
        "group": "cosmos-2251-debris",
        "lat": 55.51575260252318,
        "lon": 7.93875419902023,
        "alt_km": 633.9781756491211,
        "timestamp": "2025-12-14T14:39:29.766017+00:00",
        "meta_object_name": "COSMOS 2251 DEB",
        "meta_object_id": "1993-036AVY",
        "meta_epoch": "2025-12-13T23:37:11.831808",
        "meta_mean_motion": 14.62760641,
        "meta_eccentricity": 0.00641584,
        "meta_inclination": 74.0585,
        "meta_ra_of_asc_node": 344.5471,
        "meta_arg_of_pericenter": 50.4851,
        "meta_mean_anomaly": 310.1963,
        "meta_ephemeris_type": 0,
        "meta_classification_type": "U",
        "meta_norad_cat_id": 35982,
        "meta_element_set_no": 999,
        "meta_rev_at_epoch": 86184,
        "meta_bstar": 0.00071264791,
        "meta_mean_motion_dot": 3.714e-05,
        "meta_mean_motion_ddot": 0,
        "tle_line1": "1 35982U 93036AVY 25347.98416472  .00003714  00000+0  71265-3 0  9998",
        "tle_line2": "2 35982  74.0585 344.5471 0064158  50.4851 310.1963 14.62760641861840"
      },
      "geometry": {
        "type": "Point",
        "coordinates": [
          7.93875419902023,
          55.51575260252318
        ]
      }
    }
  ]
}